[{"OBJECT_NAME":"SAUDISAT 5A","OBJECT_ID":"2018-102A","EPOCH":"2026-03-09T23:40:00.596928","MEAN_MOTION":15.26941021,"ECCENTRICITY":0.00113651,"INCLINATION":97.3185,"RA_OF_ASC_NODE":132.4981,"ARG_OF_PERICENTER":121.7113,"MEAN_ANOMALY":238.5235,"EPHEMERIS_TYPE":0,"CLASSIFICATION_TYPE":"U","NORAD_CAT_ID":43831,"ELEMENT_SET_NO":999,"REV_AT_EPOCH":40053,"BSTAR":0.00030305233,"MEAN_MOTION_DOT":7.96e-5,"MEAN_MOTION_DDOT":0},{"OBJECT_NAME":"STARLINK-30957","OBJECT_ID":"2023-183S","EPOCH":"2026-03-08T23:56:13.975872","MEAN_MOTION":15.26747443,"ECCENTRICITY":0.00015318,"INCLINATION":43.0053,"RA_OF_ASC_NODE":45.0847,"ARG_OF_PERICENTER":274.814,"MEAN_ANOMALY":85.2537,"EPHEMERIS_TYPE":0,"CLASSIFICATION_TYPE":"U","NORAD_CAT_ID":58453,"ELEMENT_SET_NO":999,"REV_AT_EPOCH":12663,"BSTAR":0.00010846867,"MEAN_MOTION_DOT":2.651e-5,"MEAN_MOTION_DDOT":0}]
